2024-023A               
1 58905U 24023A   24062.09550330  .00003504  00000+0  40224-3 0  9993
2 58905  49.9960 305.8597 0009408  42.8533 317.3139 14.88052395  4184
2024-023B               
1 58906U 24023B   24062.14765464  .00003370  00000+0  38781-3 0  9992
2 58906  50.0000 305.4634 0005627 330.7818  29.2806 14.88061606  4191
2024-023C               
1 58907U 24023C   24062.13917995  .00002663  00000+0  30074-3 0  9991
2 58907  50.0011 305.4130 0007284  19.9491 340.1733 14.89566543  4194
2024-023D               
1 58908U 24023D   24062.13820630  .00002696  00000+0  30377-3 0  9993
2 58908  49.9927 305.3855 0007787  20.9049 339.2209 14.89618512  4191
2024-023E               
1 58909U 24023E   24062.11772451  .00003771  00000+0  40172-3 0  9998
2 58909  50.0055 305.2918 0010585 354.0573   6.0241 14.90928764  4199
2024-023F               
1 58910U 24023F   24062.13443586  .00003975  00000+0  43319-3 0  9998
2 58910  49.9894 305.3547 0008571  24.8282 335.3070 14.89880971  4192
2024-023G               
1 58911U 24023G   24062.14026985  .00003381  00000+0  38914-3 0  9996
2 58911  50.0068 305.4355 0004932 313.4309  46.6220 14.88048369  4196
2024-023H               
1 58912U 24023H   24062.12868946  .00004302  00000+0  46496-3 0  9994
2 58912  49.9908 305.3221 0010225  30.0935 330.0592 14.90031940  4199
2024-023J               
1 58913U 24023J   24062.10829957  .00003772  00000+0  39774-3 0  9993
2 58913  50.0055 305.2331 0008021   4.7098 355.3918 14.91357886  4199
2024-023K               
1 58914U 24023K   24062.08804095  .00003672  00000+0  41968-3 0  9994
2 58914  49.9958 305.8122 0015967  60.7361 299.5174 14.88072115  4182
2024-023L               
1 58915U 24023L   24062.12340739  .00004380  00000+0  46953-3 0  9996
2 58915  50.0008 305.3147 0011054  37.0383 323.1319 14.90318639  4191
2024-023M               
1 58916U 24023M   24062.12478188  .00000842  00000+0  16754-3 0  9992
2 58916  49.8986 309.1979 0099100 337.5327  22.1280 14.68934489  4131
2024-024A               
1 58917U 24024A   24062.12523990  .00015623  00000+0  76646-3 0  9995
2 58917  97.4000 139.0045 0009520 177.0353 183.0939 15.18149991  4258
2024-024B               
1 58918U 24024B   24062.12875350  .00010556  00000+0  52473-3 0  9998
2 58918  97.4008 139.0022 0011154 179.2769 180.8483 15.17772176  4247
2024-024C               
1 58919U 24024C   24062.12146953  .00013581  00000+0  66435-3 0  9993
2 58919  97.4004 139.0102 0010191 187.7312 172.3767 15.18279014  4246
2024-024D               
1 58920U 24024D   24062.11895180  .00017151  00000+0  83217-3 0  9991
2 58920  97.4018 139.0185 0010305 188.8607 171.2447 15.18508742  4246
2024-024E               
1 58921U 24024E   24062.12554444  .00004746  00000+0  23785-3 0  9998
2 58921  97.3957 138.9870 0011029 185.3404 174.7714 15.17781524  4243
2024-024F               
1 58922U 24024F   24062.11968117  .00013294  00000+0  64928-3 0  9996
2 58922  97.3955 138.9933 0011138 190.4703 169.6301 15.18329603  4244
2024-024G               
1 58923U 24024G   24062.18282390  .00009396  00000+0  45813-3 0  9996
2 58923  97.4033 139.0916 0011203 190.4781 169.6222 15.18476350  4250
2024-024H               
1 58924U 24024H   24062.11728720  .00015356  00000+0  74449-3 0  9992
2 58924  97.4003 139.0150 0011669 190.0883 170.0119 15.18546266 40966
2024-024J               
1 58925U 24024J   24062.11949944  .00009334  00000+0  45790-3 0  9992
2 58925  97.4006 139.0141 0011917 190.0408 170.0590 15.18259032 40953
2024-024K               
1 58926U 24024K   24062.18087835  .00705404  23073-5  83150-3 0  9996
2 58926  97.4070 141.3287 0188260 233.4722 124.9086 15.82492742 41103
2024-024L               
1 58927U 24024L   24062.17632339  .00028774  00000+0  13609-2 0  9999
2 58927  97.4038 139.1019 0011108 193.8317 166.2615 15.19279955  3846
PACE                    
1 58928U 24025A   24061.79037867  .00000848  00000+0  16615-3 0  9996
2 58928  98.0885 355.0373 0000942  72.4275 287.7031 14.65266886  3294
COSMOS 2575             
1 58929U 24026A   24062.11970127  .00031003  00000+0  23076-3 0  9996
2 58929  96.7526 320.0296 0005519 317.1069  42.9766 15.72730622  3438
SL-4 R/B                
1 58930U 24026B   24061.71532018  .00071565  00000+0  47334-3 0  9996
2 58930  96.7554 319.7101 0002628 285.7654  74.3322 15.75348730  3355
STARLINK-31317          
1 58931U 24027A   24062.25001157 -.02207359  00000+0 -66617-1 0  9992
2 58931  53.1592 133.2986 0001472  80.6319  24.7294 15.37190387  4282
STARLINK-31378          
1 58932U 24027B   24061.91667824 -.02222096  00000+0 -63747-1 0  9990
2 58932  53.1590 134.8617 0001225  65.3183 355.3673 15.38760206  4282
STARLINK-31350          
1 58933U 24027C   24061.91667824 -.02223923  00000+0 -60081-1 0  9999
2 58933  53.1589 134.8426 0001197  64.2793   6.0771 15.40572421  4240
STARLINK-31337          
1 58934U 24027D   24062.25001157 -.02209417  00000+0 -62834-1 0  9999
2 58934  53.1594 133.2749 0001314  78.6697  38.5338 15.39003289  4294
STARLINK-31362          
1 58935U 24027E   24061.91667824 -.02225026  00000+0 -56554-1 0  9997
2 58935  53.1591 134.8320 0001282  64.0810  11.5271 15.42388549  4234
